NORAD_CAT_ID,OBJECT_NAME,OBJECT_TYPE,EPOCH,MEAN_MOTION,ECCENTRICITY,INCLINATION,RA_OF_ASC_NODE,ARG_OF_PERICENTER,MEAN_ANOMALY,BSTAR,MEAN_MOTION_DOT,MEAN_MOTION_DDOT,TLE_LINE0,TLE_LINE1,TLE_LINE2,SEMIMAJOR_AXIS,PERIOD,APOGEE,PERIGEE,DECAYED
56468.0,STARLINK-5998,PAYLOAD,2024-03-03 19:33:32,14.98406221,0.0003192,70.0008,199.6745,270.9596,89.1197,-0.001382,-0.00016577,0.0,0 STARLINK-5998,1 56468U 23064W   24063.81495572 -.00016577  00000-0 -13820-2 0  9994,2 56468  70.0008 199.6745 0003192 270.9596  89.1197 14.98406221 45023,6949.957,96.102,574.041,569.604,0.0
56468.0,STARLINK-5998,PAYLOAD,2024-03-04 11:34:53,14.98342797,0.0002924,70.0005,197.991,263.9921,96.0905,0.00011897,1.327e-05,0.0,0 STARLINK-5998,1 56468U 23064W   24064.48255793  .00001327  00000-0  11897-3 0  9995,2 56468  70.0005 197.9910 0002924 263.9921  96.0905 14.98342797 45482,6950.153,96.106,574.051,569.986,0.0
56468.0,STARLINK-5998,PAYLOAD,2024-03-04 14:47:08,14.98344569,0.0002894,70.0007,197.6545,265.4118,94.671,0.00013799,1.554e-05,0.0,0 STARLINK-5998,1 56468U 23064W   24064.61607528  .00001554  00000-0  13799-3 0  9992,2 56468  70.0007 197.6545 0002894 265.4118  94.6710 14.98344569 45146,6950.148,96.106,574.024,570.001,0.0
56468.0,STARLINK-5998,PAYLOAD,2024-03-04 17:59:24,14.98346575,0.0002875,70.0007,197.3178,264.7238,95.3593,0.00015631,1.773e-05,0.0,0 STARLINK-5998,1 56468U 23064W   24064.74959218  .00001773  00000-0  15631-3 0  9992,2 56468  70.0007 197.3178 0002875 264.7238  95.3593 14.98346575 45167,6950.142,96.106,574.005,570.008,0.0
56468.0,STARLINK-5998,PAYLOAD,2024-03-05 13:13:03,14.98322873,0.0002689,70.0011,195.2981,263.721,96.3643,-4.5384e-05,-6.34e-06,0.0,0 STARLINK-5998,1 56468U 23064W   24065.55073318 -.00000634  00000-0 -45384-4 0  9996,2 56468  70.0011 195.2981 0002689 263.7210  96.3643 14.98322873 45288,6950.215,96.107,573.949,570.211,0.0
56468.0,STARLINK-5998,PAYLOAD,2024-03-05 18:01:27,14.98321853,0.0003435,69.9992,194.7908,274.8536,85.2231,-9.9367e-05,-1.278e-05,0.0,0 STARLINK-5998,1 56468U 23064W   24065.75101588 -.00001278  00000-0 -99367-4 0  9994,2 56468  69.9992 194.7908 0003435 274.8536  85.2231 14.98321853 45670,6950.218,96.108,574.47,569.696,0.0
56468.0,STARLINK-5998,PAYLOAD,2024-03-06 11:38:55,14.98336648,0.0002932,70.0005,192.9418,270.2869,89.7954,-0.00014847,-1.864e-05,0.0,0 STARLINK-5998,1 56468U 23064W   24066.48536901 -.00001864  00000-0 -14847-3 0  9996,2 56468  70.0005 192.9418 0002932 270.2869  89.7954 14.98336648 45785,6950.172,96.107,574.075,570.0,0.0
56468.0,STARLINK-5998,PAYLOAD,2024-03-06 13:15:03,14.98337305,0.000291,70.0006,192.7737,269.741,90.3416,-0.00013807,-1.74e-05,0.0,0 STARLINK-5998,1 56468U 23064W   24066.55212810 -.00001740  00000-0 -13807-3 0  9992,2 56468  70.0006 192.7737 0002910 269.7410  90.3416 14.98337305 45433,6950.17,96.107,574.058,570.013,0.0
56468.0,STARLINK-5998,PAYLOAD,2024-03-06 18:03:27,14.98341792,0.0002812,70.0009,192.2691,268.4277,91.656,-7.512e-05,-9.89e-06,0.0,0 STARLINK-5998,1 56468U 23064W   24066.75240249 -.00000989  00000-0 -75120-4 0  9992,2 56468  70.0009 192.2691 0002812 268.4277  91.6560 14.98341792 45820,6950.156,96.106,573.976,570.067,0.0
56468.0,STARLINK-5998,PAYLOAD,2024-03-07 14:53:13,14.9831953,0.0002531,70.0008,190.0792,268.5605,91.5264,0.00012201,1.363e-05,0.0,0 STARLINK-5998,1 56468U 23064W   24067.62029390  .00001363  00000-0  12201-3 0  9996,2 56468  70.0008 190.0792 0002531 268.5605  91.5264 14.98319530 45590,6950.225,96.108,573.849,570.331,0.0
56468.0,STARLINK-5998,PAYLOAD,2024-03-08 11:42:55,14.98353889,0.0002753,70.0008,187.8924,266.4547,93.6297,0.00022671,2.615e-05,0.0,0 STARLINK-5998,1 56468U 23064W   24068.48814441  .00002615  00000-0  22671-3 0  9993,2 56468  70.0008 187.8924 0002753 266.4547  93.6297 14.98353889 46088,6950.119,96.105,573.897,570.071,0.0
56468.0,STARLINK-5998,PAYLOAD,2024-03-08 14:55:11,14.98357132,0.0002868,70.0006,187.5563,266.5192,93.5639,0.00021607,2.488e-05,0.0,0 STARLINK-5998,1 56468U 23064W   24068.62166059  .00002488  00000-0  21607-3 0  9990,2 56468  70.0006 187.5563 0002868 266.5192  93.5639 14.98357132 45742,6950.109,96.105,573.967,569.981,0.0
56468.0,STARLINK-5998,PAYLOAD,2024-03-09 00:31:59,14.98351897,0.0003315,69.999,186.5461,264.4759,95.6022,6.2822e-05,6.57e-06,0.0,0 STARLINK-5998,1 56468U 23064W   24069.02222132  .00000657  00000-0  62822-4 0  9991,2 56468  69.9990 186.5461 0003315 264.4759  95.6022 14.98351897 46169,6950.125,96.106,574.294,569.686,0.0
56468.0,STARLINK-5998,PAYLOAD,2024-03-09 11:44:59,14.98314667,0.0002496,70.0005,185.3671,259.7949,100.2928,-0.0001557,-1.949e-05,0.0,0 STARLINK-5998,1 56468U 23064W   24069.48957337 -.00001949  00000-0 -15570-3 0  9997,2 56468  70.0005 185.3671 0002496 259.7949 100.2928 14.98314667 46236,6950.24,96.108,573.84,570.371,0.0
56468.0,STARLINK-5998,PAYLOAD,2024-03-09 18:09:31,14.98314144,0.0002604,70.0006,184.6942,261.5346,98.5518,-0.00017462,-2.175e-05,0.0,0 STARLINK-5998,1 56468U 23064W   24069.75661622 -.00002175  00000-0 -17462-3 0  9990,2 56468  70.0006 184.6942 0002604 261.5346  98.5518 14.98314144 45911,6950.242,96.108,573.917,570.297,0.0
56468.0,STARLINK-5998,PAYLOAD,2024-03-10 00:34:03,14.98326432,0.0002832,70.0006,184.0212,263.5258,96.5579,-0.00027959,-3.427e-05,0.0,0 STARLINK-5998,1 56468U 23064W   24070.02365184 -.00003427  00000-0 -27959-3 0  9999,2 56468  70.0006 184.0212 0002832 263.5258  96.5579 14.98326432 46315,6950.204,96.107,574.037,570.101,0.0
56468.0,STARLINK-5998,PAYLOAD,2024-03-10 11:46:59,14.98335109,0.0002783,70.0003,182.8423,265.9395,94.1446,-0.00024338,-2.996e-05,0.0,0 STARLINK-5998,1 56468U 23064W   24070.49096492 -.00002996  00000-0 -24338-3 0  9991,2 56468  70.0003 182.8423 0002783 265.9395  94.1446 14.98335109 46380,6950.177,96.107,573.976,570.108,0.0
56468.0,STARLINK-5998,PAYLOAD,2024-03-11 00:36:02,14.98401436,0.000301,70.0,181.4952,262.6357,97.446,-0.001323,-0.00015872,0.0,0 STARLINK-5998,1 56468U 23064W   24071.02502609 -.00015872  00000-0 -13230-2 0  9998,2 56468  70.0000 181.4952 0003010 262.6357  97.4460 14.98401436 46463,6949.972,96.102,573.929,569.745,0.0
56468.0,STARLINK-5998,PAYLOAD,2024-03-11 13:25:07,14.98326435,0.000293,70.0001,180.1493,262.8624,97.2202,0.00023913,2.761e-05,0.0,0 STARLINK-5998,1 56468U 23064W   24071.55911883  .00002761  00000-0  23913-3 0  9995,2 56468  70.0001 180.1493 0002930 262.8624  97.2202 14.98326435 46545,6950.204,96.107,574.105,570.033,0.0
56468.0,STARLINK-5998,PAYLOAD,2024-03-12 13:27:09,14.98323323,0.0002801,70.0007,177.6258,266.5188,93.565,2.5346e-05,2.09e-06,0.0,0 STARLINK-5998,1 56468U 23064W   24072.56052947  .00000209  00000-0  25346-4 0  9992,2 56468  70.0007 177.6258 0002801 266.5188  93.5650 14.98323323 46699,6950.214,96.107,574.025,570.132,0.0
56468.0,STARLINK-5998,PAYLOAD,2024-03-13 13:29:10,14.98337277,0.0002634,70.0006,175.1002,264.4162,95.6697,-3.1497e-05,-4.69e-06,0.0,0 STARLINK-5998,1 56468U 23064W   24073.56192204 -.00000469  00000-0 -31497-4 0  9998,2 56468  70.0006 175.1002 0002634 264.4162  95.6697 14.98337277 46845,6950.17,96.107,573.866,570.205,0.0
56468.0,STARLINK-5998,PAYLOAD,2024-03-14 05:30:30,14.98331034,0.0003072,69.9999,173.4169,270.5677,89.513,5.8938e-05,6.1e-06,0.0,0 STARLINK-5998,1 56468U 23064W   24074.22952133  .00000610  00000-0  58938-4 0  9992,2 56468  69.9999 173.4169 0003072 270.5677  89.5130 14.98331034 46584,6950.19,96.107,574.19,569.92,0.0
56468.0,STARLINK-5998,PAYLOAD,2024-03-14 11:55:02,14.98333633,0.0002966,70.0003,172.744,269.9151,90.1668,8.4685e-05,9.18e-06,0.0,0 STARLINK-5998,1 56468U 23064W   24074.49655852  .00000918  00000-0  84685-4 0  9998,2 56468  70.0003 172.7440 0002966 269.9151  90.1668 14.98333633 46623,6950.182,96.107,574.108,569.985,0.0
56468.0,STARLINK-5998,PAYLOAD,2024-03-15 05:32:31,14.98332337,0.0002651,70.0012,170.8942,265.3767,94.709,-1.1524e-05,-2.3e-06,0.0,0 STARLINK-5998,1 56468U 23064W   24075.23092142 -.00000230  00000-0 -11524-4 0  9999,2 56468  70.0012 170.8942 0002651 265.3767  94.7090 14.98332337 47094,6950.186,96.107,573.893,570.208,0.0
56468.0,STARLINK-5998,PAYLOAD,2024-03-15 16:45:28,14.98328897,0.0002877,70.0005,169.7147,269.0163,91.0666,-4.3657e-05,-6.14e-06,0.0,0 STARLINK-5998,1 56468U 23064W   24075.69824439 -.00000614  00000-0 -43657-4 0  9999,2 56468  70.0005 169.7147 0002877 269.0163  91.0666 14.98328897 46804,6950.196,96.107,574.061,570.062,0.0
56468.0,STARLINK-5998,PAYLOAD,2024-03-16 11:59:05,14.98323877,0.000264,70.001,167.695,263.5828,96.503,-0.00010562,-1.353e-05,0.0,0 STARLINK-5998,1 56468U 23064W   24076.49937110 -.00001353  00000-0 -10562-3 0  9998,2 56468  70.0010 167.6950 0002640 263.5828  96.5030 14.98323877 47285,6950.212,96.107,573.912,570.242,0.0
56468.0,STARLINK-5998,PAYLOAD,2024-03-16 13:35:13,14.98323187,0.0002653,70.001,167.5268,263.8548,96.2309,-0.0001104,-1.41e-05,0.0,0 STARLINK-5998,1 56468U 23064W   24076.56613196 -.00001410  00000-0 -11040-3 0  9997,2 56468  70.0010 167.5268 0002653 263.8548  96.2309 14.98323187 46933,6950.214,96.107,573.923,570.235,0.0
56468.0,STARLINK-5998,PAYLOAD,2024-03-16 15:11:21,14.9832365,0.0002643,70.001,167.3585,264.0095,96.0763,-0.00010195,-1.309e-05,0.0,0 STARLINK-5998,1 56468U 23064W   24076.63289171 -.00001309  00000-0 -10195-3 0  9994,2 56468  70.0010 167.3585 0002643 264.0095  96.0763 14.98323650 46940,6950.213,96.107,573.914,570.241,0.0
56468.0,STARLINK-5998,PAYLOAD,2024-03-17 05:36:33,14.98327385,0.0003272,69.9994,165.842,273.0306,87.0478,4.5143e-05,4.46e-06,0.0,0 STARLINK-5998,1 56468U 23064W   24077.23372538  .00000446  00000-0  45143-4 0  9992,2 56468  69.9994 165.8420 0003272 273.0306  87.0478 14.98327385 47395,6950.201,96.107,574.34,569.792,0.0
56468.0,STARLINK-5998,PAYLOAD,2024-03-17 13:37:13,14.9833263,0.0002861,70.0005,165.0016,266.3206,93.7626,9.3937e-05,1.028e-05,0.0,0 STARLINK-5998,1 56468U 23064W   24077.56752058  .00001028  00000-0  93937-4 0  9998,2 56468  70.0005 165.0016 0002861 266.3206  93.7626 14.98332630 47085,6950.185,96.107,574.038,570.061,0.0
